ISS OBJECT YC           
1 67686U 98067YC  26055.51714998  .00045468  00000+0  76511-3 0  9994
2 67686  51.6312 137.1991 0007729 108.4650 251.7180 15.51233940  2743
LEOPARD                 
1 67687U 98067YD  26056.42216045  .00033503  00000+0  57376-3 0  9991
2 67687  51.6310 132.7414 0007714 114.5604 245.6190 15.50883985  2803
ISS OBJECT YE           
1 67688U 98067YE  26056.41999476  .00042562  00000+0  71855-3 0  9990
2 67688  51.6315 132.7279 0007609 111.7253 248.4547 15.51173026  2806
PRC TEST SPACECRAFT 4   
1 67689U 26024A   26056.50210864  .00000011  00000+0  25066-4 0  9999
2 67689  49.9850  79.9833 0006161 313.1456  46.8970 14.91677736  2769
CZ-2F R/B               
1 67690U 26024B   26056.45718080  .00019232  00000+0  35596-3 0  9991
2 67690  49.9871  75.9264 0175967 224.2071 134.4716 15.33789140  2812
CZ-2F DEB               
1 67691U 26024C   26056.43527192  .00832648  10568-4  79382-3 0  9992
2 67691  49.9049  71.0298 0200685 235.3184 122.8740 15.81762428  2864
CZ-2F DEB               
1 67692U 26024D   26056.47001923  .00189885  00000+0  36110-2 0  9990
2 67692  50.3163  78.5247 0249279 231.9903 125.8313 15.20059942  2768
STARLINK-36748          
1 67693U 26025A   26056.50002314  .00041795  00000+0  28024-3 0  9994
2 67693  97.2841 167.4311 0001236  88.4123  72.3345 15.75146283  3891
STARLINK-36753          
1 67694U 26025B   26056.50002314 -.00032217  00000+0 -21586-3 0  9992
2 67694  97.2841 167.4481 0001401  74.6842 130.0299 15.75198242  4050
STARLINK-36750          
1 67695U 26025C   26056.46253281  .00172994  00000+0  88265-3 0  9991
2 67695  97.2831 167.4124 0001386  91.7593 268.3834 15.80901365  4019
STARLINK-36401          
1 67696U 26025D   26056.46098003  .00230232  00000+0  11651-2 0  9995
2 67696  97.2829 167.4142 0001460  82.6089 277.5345 15.80931340  4014
STARLINK-36704          
1 67697U 26025E   26056.50002314 -.00115793  00000+0 -78358-3 0  9995
2 67697  97.2841 167.4524 0001626  60.3535 156.3067 15.75260330  3894
