CCSDS_OMM_VERS = 2.0
CREATION_DATE  = 
ORIGINATOR     = 

OBJECT_NAME    = ISS OBJECT YC
OBJECT_ID      = 1998-067YC
CENTER_NAME    = EARTH
REF_FRAME      = TEME
TIME_SYSTEM    = UTC
MEAN_ELEMENT_THEORY = SGP/SGP4

EPOCH          = 2026-02-24T12:24:41.758272
MEAN_MOTION    = 15.51233940
ECCENTRICITY   = .00077298
INCLINATION    = 51.6312
RA_OF_ASC_NODE = 137.1991
ARG_OF_PERICENTER = 108.4650
MEAN_ANOMALY   = 251.7180

EPHEMERIS_TYPE = 0
CLASSIFICATION_TYPE = U
NORAD_CAT_ID   = 67686
ELEMENT_SET_NO = 999
REV_AT_EPOCH   = 274
BSTAR          = .76511481E-3
MEAN_MOTION_DOT = .45468E-3
MEAN_MOTION_DDOT = 0

CCSDS_OMM_VERS = 2.0
CREATION_DATE  = 
ORIGINATOR     = 

OBJECT_NAME    = LEOPARD
OBJECT_ID      = 1998-067YD
CENTER_NAME    = EARTH
REF_FRAME      = TEME
TIME_SYSTEM    = UTC
MEAN_ELEMENT_THEORY = SGP/SGP4

EPOCH          = 2026-02-25T10:07:54.662880
MEAN_MOTION    = 15.50883985
ECCENTRICITY   = .0007714
INCLINATION    = 51.6310
RA_OF_ASC_NODE = 132.7414
ARG_OF_PERICENTER = 114.5604
MEAN_ANOMALY   = 245.6190

EPHEMERIS_TYPE = 0
CLASSIFICATION_TYPE = U
NORAD_CAT_ID   = 67687
ELEMENT_SET_NO = 999
REV_AT_EPOCH   = 280
BSTAR          = .57376E-3
MEAN_MOTION_DOT = .33503E-3
MEAN_MOTION_DDOT = 0

CCSDS_OMM_VERS = 2.0
CREATION_DATE  = 
ORIGINATOR     = 

OBJECT_NAME    = ISS OBJECT YE
OBJECT_ID      = 1998-067YE
CENTER_NAME    = EARTH
REF_FRAME      = TEME
TIME_SYSTEM    = UTC
MEAN_ELEMENT_THEORY = SGP/SGP4

EPOCH          = 2026-02-25T10:04:47.547264
MEAN_MOTION    = 15.51173026
ECCENTRICITY   = .0007609
INCLINATION    = 51.6315
RA_OF_ASC_NODE = 132.7279
ARG_OF_PERICENTER = 111.7253
MEAN_ANOMALY   = 248.4547

EPHEMERIS_TYPE = 0
CLASSIFICATION_TYPE = U
NORAD_CAT_ID   = 67688
ELEMENT_SET_NO = 999
REV_AT_EPOCH   = 280
BSTAR          = .71855E-3
MEAN_MOTION_DOT = .42562E-3
MEAN_MOTION_DDOT = 0

CCSDS_OMM_VERS = 2.0
CREATION_DATE  = 
ORIGINATOR     = 

OBJECT_NAME    = PRC TEST SPACECRAFT 4
OBJECT_ID      = 2026-024A
CENTER_NAME    = EARTH
REF_FRAME      = TEME
TIME_SYSTEM    = UTC
MEAN_ELEMENT_THEORY = SGP/SGP4

EPOCH          = 2026-02-25T12:03:02.186496
MEAN_MOTION    = 14.91677736
ECCENTRICITY   = .0006161
INCLINATION    = 49.9850
RA_OF_ASC_NODE = 79.9833
ARG_OF_PERICENTER = 313.1456
MEAN_ANOMALY   = 46.8970

EPHEMERIS_TYPE = 0
CLASSIFICATION_TYPE = U
NORAD_CAT_ID   = 67689
ELEMENT_SET_NO = 999
REV_AT_EPOCH   = 276
BSTAR          = .25066E-4
MEAN_MOTION_DOT = .11E-6
MEAN_MOTION_DDOT = 0

CCSDS_OMM_VERS = 2.0
CREATION_DATE  = 
ORIGINATOR     = 

OBJECT_NAME    = CZ-2F R/B
OBJECT_ID      = 2026-024B
CENTER_NAME    = EARTH
REF_FRAME      = TEME
TIME_SYSTEM    = UTC
MEAN_ELEMENT_THEORY = SGP/SGP4

EPOCH          = 2026-02-25T10:58:20.421120
MEAN_MOTION    = 15.33789140
ECCENTRICITY   = .0175967
INCLINATION    = 49.9871
RA_OF_ASC_NODE = 75.9264
ARG_OF_PERICENTER = 224.2071
MEAN_ANOMALY   = 134.4716

EPHEMERIS_TYPE = 0
CLASSIFICATION_TYPE = U
NORAD_CAT_ID   = 67690
ELEMENT_SET_NO = 999
REV_AT_EPOCH   = 281
BSTAR          = .35596E-3
MEAN_MOTION_DOT = .19232E-3
MEAN_MOTION_DDOT = 0

CCSDS_OMM_VERS = 2.0
CREATION_DATE  = 
ORIGINATOR     = 

OBJECT_NAME    = CZ-2F DEB
OBJECT_ID      = 2026-024C
CENTER_NAME    = EARTH
REF_FRAME      = TEME
TIME_SYSTEM    = UTC
MEAN_ELEMENT_THEORY = SGP/SGP4

EPOCH          = 2026-02-25T10:26:47.493888
MEAN_MOTION    = 15.81762428
ECCENTRICITY   = .0200685
INCLINATION    = 49.9049
RA_OF_ASC_NODE = 71.0298
ARG_OF_PERICENTER = 235.3184
MEAN_ANOMALY   = 122.8740

EPHEMERIS_TYPE = 0
CLASSIFICATION_TYPE = U
NORAD_CAT_ID   = 67691
ELEMENT_SET_NO = 999
REV_AT_EPOCH   = 286
BSTAR          = .79382E-3
MEAN_MOTION_DOT = .832648E-2
MEAN_MOTION_DDOT = .10568E-4

CCSDS_OMM_VERS = 2.0
CREATION_DATE  = 
ORIGINATOR     = 

OBJECT_NAME    = CZ-2F DEB
OBJECT_ID      = 2026-024D
CENTER_NAME    = EARTH
REF_FRAME      = TEME
TIME_SYSTEM    = UTC
MEAN_ELEMENT_THEORY = SGP/SGP4

EPOCH          = 2026-02-25T11:16:49.661472
MEAN_MOTION    = 15.20059942
ECCENTRICITY   = .0249279
INCLINATION    = 50.3163
RA_OF_ASC_NODE = 78.5247
ARG_OF_PERICENTER = 231.9903
MEAN_ANOMALY   = 125.8313

EPHEMERIS_TYPE = 0
CLASSIFICATION_TYPE = U
NORAD_CAT_ID   = 67692
ELEMENT_SET_NO = 999
REV_AT_EPOCH   = 276
BSTAR          = .3611E-2
MEAN_MOTION_DOT = .189885E-2
MEAN_MOTION_DDOT = 0

CCSDS_OMM_VERS = 2.0
CREATION_DATE  = 
ORIGINATOR     = 

OBJECT_NAME    = STARLINK-36748
OBJECT_ID      = 2026-025A
CENTER_NAME    = EARTH
REF_FRAME      = TEME
TIME_SYSTEM    = UTC
MEAN_ELEMENT_THEORY = SGP/SGP4

EPOCH          = 2026-02-25T12:00:01.999296
MEAN_MOTION    = 15.75146283
ECCENTRICITY   = .0001236
INCLINATION    = 97.2841
RA_OF_ASC_NODE = 167.4311
ARG_OF_PERICENTER = 88.4123
MEAN_ANOMALY   = 72.3345

EPHEMERIS_TYPE = 0
CLASSIFICATION_TYPE = U
NORAD_CAT_ID   = 67693
ELEMENT_SET_NO = 999
REV_AT_EPOCH   = 389
BSTAR          = .28024E-3
MEAN_MOTION_DOT = .41795E-3
MEAN_MOTION_DDOT = 0

CCSDS_OMM_VERS = 2.0
CREATION_DATE  = 
ORIGINATOR     = 

OBJECT_NAME    = STARLINK-36753
OBJECT_ID      = 2026-025B
CENTER_NAME    = EARTH
REF_FRAME      = TEME
TIME_SYSTEM    = UTC
MEAN_ELEMENT_THEORY = SGP/SGP4

EPOCH          = 2026-02-25T12:00:01.999296
MEAN_MOTION    = 15.75198242
ECCENTRICITY   = .0001401
INCLINATION    = 97.2841
RA_OF_ASC_NODE = 167.4481
ARG_OF_PERICENTER = 74.6842
MEAN_ANOMALY   = 130.0299

EPHEMERIS_TYPE = 0
CLASSIFICATION_TYPE = U
NORAD_CAT_ID   = 67694
ELEMENT_SET_NO = 999
REV_AT_EPOCH   = 405
BSTAR          = -.21586E-3
MEAN_MOTION_DOT = -.32217E-3
MEAN_MOTION_DDOT = 0

CCSDS_OMM_VERS = 2.0
CREATION_DATE  = 
ORIGINATOR     = 

OBJECT_NAME    = STARLINK-36750
OBJECT_ID      = 2026-025C
CENTER_NAME    = EARTH
REF_FRAME      = TEME
TIME_SYSTEM    = UTC
MEAN_ELEMENT_THEORY = SGP/SGP4

EPOCH          = 2026-02-25T11:06:02.834784
MEAN_MOTION    = 15.80901365
ECCENTRICITY   = .0001386
INCLINATION    = 97.2831
RA_OF_ASC_NODE = 167.4124
ARG_OF_PERICENTER = 91.7593
MEAN_ANOMALY   = 268.3834

EPHEMERIS_TYPE = 0
CLASSIFICATION_TYPE = U
NORAD_CAT_ID   = 67695
ELEMENT_SET_NO = 999
REV_AT_EPOCH   = 401
BSTAR          = .88265E-3
MEAN_MOTION_DOT = .172994E-2
MEAN_MOTION_DDOT = 0

CCSDS_OMM_VERS = 2.0
CREATION_DATE  = 
ORIGINATOR     = 

OBJECT_NAME    = STARLINK-36401
OBJECT_ID      = 2026-025D
CENTER_NAME    = EARTH
REF_FRAME      = TEME
TIME_SYSTEM    = UTC
MEAN_ELEMENT_THEORY = SGP/SGP4

EPOCH          = 2026-02-25T11:03:48.674592
MEAN_MOTION    = 15.80931340
ECCENTRICITY   = .000146
INCLINATION    = 97.2829
RA_OF_ASC_NODE = 167.4142
ARG_OF_PERICENTER = 82.6089
MEAN_ANOMALY   = 277.5345

EPHEMERIS_TYPE = 0
CLASSIFICATION_TYPE = U
NORAD_CAT_ID   = 67696
ELEMENT_SET_NO = 999
REV_AT_EPOCH   = 401
BSTAR          = .11651E-2
MEAN_MOTION_DOT = .230232E-2
MEAN_MOTION_DDOT = 0

CCSDS_OMM_VERS = 2.0
CREATION_DATE  = 
ORIGINATOR     = 

OBJECT_NAME    = STARLINK-36704
OBJECT_ID      = 2026-025E
CENTER_NAME    = EARTH
REF_FRAME      = TEME
TIME_SYSTEM    = UTC
MEAN_ELEMENT_THEORY = SGP/SGP4

EPOCH          = 2026-02-25T12:00:01.999296
MEAN_MOTION    = 15.75260330
ECCENTRICITY   = .0001626
INCLINATION    = 97.2841
RA_OF_ASC_NODE = 167.4524
ARG_OF_PERICENTER = 60.3535
MEAN_ANOMALY   = 156.3067

EPHEMERIS_TYPE = 0
CLASSIFICATION_TYPE = U
NORAD_CAT_ID   = 67697
ELEMENT_SET_NO = 999
REV_AT_EPOCH   = 389
BSTAR          = -.78358E-3
MEAN_MOTION_DOT = -.115793E-2
MEAN_MOTION_DDOT = 0

